"URN","LAESTAB","Region","Closed","SCHNAME","addmission_type","institution_type","ADDRESS1","ADDRESS2","ADDRESS3","TOWN","PCODE","OFSTED","TELNUM","disadv1617","dis_5e_m1617","nondis_5e_m1617","dis_p8_1617","nondis_p8_1617","dis_ebacc_ent_1617","nondis_ebacc_ent_1617"
100054,"2024611","London","No","The Camden School for Girls","Comprehensive (secondary)","Voluntary aided school","Sandall Road",NA,NA,"London","NW5 2DB",1,"0207 4853414",41,1,1,1,1,1,1
100055,"2024652","London","No","Maria Fidelis Roman Catholic Convent School FCJ","Comprehensive (secondary)","Voluntary aided school","34 Phoenix Road",NA,NA,"London","NW1 1TA",2,"0207 3873856",48,1,1,1,1,1,1
100050,"2024166","London","No","Parliament Hill School","Comprehensive (secondary)","Community school","Highgate Road",NA,NA,"London","NW5 1RL",2,"0207 4857077",99,1,1,1,1,1,1
137181,"2024000","London","No","The UCL Academy","Comprehensive (secondary)","Academy sponsor led","Adelaide Road",NA,"Swiss Cottage","Camden","NW3 3AQ",2,"0207 4493080",88,1,1,1,1,1,1
100059,"2025401","London","No","La Sainte Union Catholic Secondary School","Comprehensive (secondary)","Voluntary aided school","Highgate Road",NA,NA,"London","NW5 1RP",2,"0207 4284600",69,1,1,1,1,1,1
100053,"2024285","London","No","Acland Burghley School","Comprehensive (secondary)","Community school","Burghley Road",NA,NA,"London","NW5 1UJ",3,"0207 4858515",60,1,1,1,1,1,1
100193,"2034682","London","No","St Ursula's Convent School","Comprehensive (secondary)","Voluntary aided school","Crooms Hill","Greenwich",NA,"London","SE10 8HN",1,"0208 8584613",19,1,1,1,1,1,1
105135,"2036905","London","No","St Paul's Academy","Comprehensive (secondary)","Academy sponsor led","Finchale Road","Abbey Wood",NA,"London","SE2 9PX",2,"0208 3113868",84,1,1,1,1,1,1
137442,"2044302","London","No","Clapton Girls' Academy","Comprehensive (secondary)","Academy converter","Laura Place","Lower Clapton Road",NA,"London","E5 0RB",1,"0208 9856641",93,1,1,1,1,1,1
100282,"2044641","London","No","Our Lady's Convent Roman Catholic High School","Comprehensive (secondary)","Voluntary aided school","6-16 Amhurst Park","Stamford Hill",NA,"London","N16 5AF",2,"0208 8002158",58,1,1,1,1,1,1
134693,"2046905","London","No","Mossbourne Community Academy","Comprehensive (secondary)","Academy sponsor led","100 Downs Park Road","Hackney",NA,"London","E5 8JY",1,"0208 5255200",90,1,1,1,1,1,1
135835,"2046908","London","No","The City Academy, Hackney","Comprehensive (secondary)","Academy sponsor led","Homerton Row","Hackney",NA,"London","E9 6EA",1,"0208 5255440",101,1,1,1,1,1,1
138607,"2054632","London","No","Lady Margaret School","Comprehensive (secondary)","Academy converter","Parson's Green",NA,NA,"London","SW6 4UN",1,"0207 7367138",30,1,1,1,1,1,1
137157,"2055400","London","No","The London Oratory School","Comprehensive (secondary)","Academy converter","Seagrave Road",NA,NA,"London","SW6 1RX",1,"0207 3850102",14,1,1,1,1,1,1
137935,"2054620","London","No","Sacred Heart High School","Comprehensive (secondary)","Academy converter","212 Hammersmith Road",NA,"Hammersmith","London","W6 7DG",1,"0208 7487600",25,1,1,1,1,1,1
136750,"2054000","London","No","West London Free School","Comprehensive (secondary)","Free schools","241 King Street",NA,NA,"London","W6 9LP",2,"0208 6000670",48,1,1,1,1,1,1
100455,"2064307","London","No","Highbury Fields School","Comprehensive (secondary)","Community school","Highbury Hill",NA,NA,"London","N5 1AR",1,"0207 2881888",89,1,1,1,1,1,1
135587,"2066906","London","No","City of London Academy Islington","Comprehensive (secondary)","Academy sponsor led","Prebend Street","Islington",NA,"London","N1 8PQ",2,"0207 2268611",57,1,1,1,1,1,1
134314,"2066905","London","No","St Mary Magdalene Academy","Comprehensive (secondary)","Academy sponsor led","Liverpool Road","Islington",NA,"London","N7 8PG",2,"0207 6970123",91,1,1,1,1,1,1
100457,"2064324","London","No","Elizabeth Garrett Anderson School","Comprehensive (secondary)","Community school","Donegal Street","Islington",NA,"London","N1 9QG",1,"0207 8370739",109,1,1,1,1,1,1
140134,"2074320","London","No","Holland Park School","Comprehensive (secondary)","Academy converter","Airlie Gardens","Campden Hill Road",NA,"London","W8 7AF",1,"0207 9081000",107,1,1,1,1,1,1
100502,"2074681","London","No","Saint Thomas More Language College","Comprehensive (secondary)","Voluntary aided school","Cadogan Street",NA,NA,"London","SW3 2QS",1,"0207 5899734",38,1,1,1,1,1,1
100638,"2085401","London","No","Bishop Thomas Grant Catholic Secondary School","Comprehensive (secondary)","Voluntary aided school","Belltrees Grove",NA,NA,"London","SW16 2HY",1,"0208 7693294",40,1,1,1,1,1,1
100637,"2085400","London","No","La Retraite Roman Catholic Girls' School","Comprehensive (secondary)","Voluntary aided school","Atkins Road",NA,NA,"London","SW12 0AB",1,"0208 6735644",50,1,1,1,1,1,1
136450,"2084322","London","No","Platanos College","Comprehensive (secondary)","Academy converter","Clapham Road",NA,NA,"London","SW9 0AL",1,"0207 7336156",120,1,1,1,1,1,1
137093,"2085402","London","No","Dunraven School","Comprehensive (secondary)","Academy converter","94-98 Leigham Court Road","Streatham",NA,"London","SW16 2QB",1,"0208 6965600",93,1,1,1,1,1,1
100741,"2094204","London","No","Sydenham School","Comprehensive (secondary)","Community school","Dartmouth Road",NA,NA,"London","SE26 4RD",2,"0208 6996731",72,1,1,1,1,1,1
135073,"2096905","London","No","Haberdashers' Aske's Hatcham College","Comprehensive (secondary)","Academy sponsor led","Pepys Road",NA,"New Cross","London","SE14 5SF",1,"0207 6529510",74,1,1,1,1,1,1
100750,"2094646","London","No","Prendergast School","Comprehensive (secondary)","Voluntary aided school","Hilly Fields","Adelaide Avenue",NA,"London","SE4 1LE",1,"0208 6903710",40,1,1,1,1,1,1
138961,"2105403","London","No","St Michael's Catholic College","Comprehensive (secondary)","Academy converter","Llewellyn Street","Bermondsey",NA,"London","SE16 4UN",1,"0207 2376432",56,1,1,1,1,1,1
132711,"2106908","London","No","Harris Girls' Academy East Dulwich","Comprehensive (secondary)","Academy sponsor led","Homestall Road",NA,NA,"London","SE22 0NR",1,"0207 7322276",71,1,1,1,1,1,1
134222,"2106905","London","No","City of London Academy (Southwark)","Comprehensive (secondary)","Academy sponsor led","240 Lynton Road",NA,NA,"London","SE1 5LA",2,"0207 3945100",109,1,1,1,1,1,1
135584,"2106912","London","No","Ark Globe Academy","Comprehensive (secondary)","Academy sponsor led","Harper Road",NA,NA,"London","SE1 6AG",2,"0207 4076877",95,1,1,1,1,1,1
138960,"2105405","London","No","Sacred Heart Catholic School","Comprehensive (secondary)","Academy converter","Camberwell New Road",NA,NA,"London","SE5 0RP",1,"0207 2746844",50,1,1,1,1,1,1
136309,"2104265","London","No","Kingsdale Foundation School","Comprehensive (secondary)","Academy converter","Alleyn Park","Dulwich",NA,"London","SE21 8SQ",1,"0208 6707575",71,1,1,1,1,1,1
100849,"2104680","London","No","St Saviour's and St Olave's Church of England School","Comprehensive (secondary)","Voluntary aided school","New Kent Road",NA,NA,"London","SE1 4AN",1,"0207 4071843",60,1,1,1,1,1,1
100857,"2105402","London","No","The St Thomas the Apostle College","Comprehensive (secondary)","Voluntary aided school","Hollydale Road","Nunhead",NA,"London","SE15 2EB",1,"0207 6390106",56,1,1,1,1,1,1
135315,"2106909","London","No","Ark Walworth Academy","Comprehensive (secondary)","Academy sponsor led","Shorncliffe Road",NA,NA,"London","SE1 5UJ",2,"0207 4509570",96,1,1,1,1,1,1
136298,"2104318","London","No","The Charter School","Comprehensive (secondary)","Academy converter","Red Post Hill",NA,NA,"London","SE24 9JH",1,"0207 3466600",52,1,1,1,1,1,1
100973,"2114297","London","No","Swanlea School","Comprehensive (secondary)","Community school","31 Brady Street","Whitechapel",NA,"London","E1 5DJ",1,"0207 3753267",125,1,1,1,1,1,1
100969,"2114276","London","Yes","Stepney Green Mathematics and Computing College","Comprehensive (secondary)","Community school","Ben Jonson Road","Stepney",NA,"London","E1 4SD",2,"0207 7906361",92,1,1,1,1,1,1
100968,"2114242","London","Yes","Mulberry School for Girls","Comprehensive (secondary)","Community school","Richard Street","Commercial Road",NA,"London","E1 2JP",NA,"0207 7906327",140,1,1,1,1,1,1
100967,"2114150","London","No","Morpeth School","Comprehensive (secondary)","Community school","Portman Place","Bethnal Green",NA,"London","E2 0PX",1,"0208 9810921",150,1,1,1,1,1,1
100977,"2114722","London","No","Sir John Cass Foundation and Redcoat Church of England Secondary School","Comprehensive (secondary)","Voluntary aided school","Stepney Way","Stepney",NA,"London","E1 0RH",1,"0207 7906712",120,1,1,1,1,1,1
143379,"2114277","London","No","St Paul's Way Trust School","Comprehensive (secondary)","Academy converter","125 St Paul's Way",NA,NA,"London","E3 4FT",1,"0207 9871883",178,1,1,1,1,1,1
137789,"2114284","London","No","Green Spring Academy Shoreditch","Comprehensive (secondary)","Academy converter","Gosset Street","Bethnal Green",NA,"London","E2 6NW",1,"0207 9207900",119,1,1,1,1,1,1
138267,"2124000","London","No","Ark Bolingbroke Academy","Comprehensive (secondary)","Free schools","Wakehurst Road",NA,NA,"London","SW11 6BF",2,"0207 9248200",53,1,1,1,1,1,1
141808,"2124734","London","No","Saint Cecilia's Church of England School","Comprehensive (secondary)","Academy converter","Sutherland Grove",NA,NA,"London","SW18 5JR",2,"0208 7801244",37,1,1,1,1,1,1
135316,"2126905","London","No","Ashcroft Technology Academy","Comprehensive (secondary)","Academy sponsor led","100 West Hill",NA,NA,"London","SW15 2UT",1,"0208 8770357",94,1,1,1,1,1,1
137005,"2125400","London","No","Graveney School","Comprehensive (secondary)","Academy converter","Welham Road","Tooting",NA,"London","SW17 9BU",1,"0208 6827000",50,1,1,1,1,1,1
101154,"2134723","London","No","St Augustine's CofE High School","Comprehensive (secondary)","Voluntary aided school","Oxford Road",NA,NA,"London","NW6 5SN",1,"0207 3283434",97,1,1,1,1,1,1
138313,"2134628","London","No","The Grey Coat Hospital","Comprehensive (secondary)","Academy converter","Greycoat Place",NA,NA,"London","SW1P 2DY",1,"0207 9691998",30,1,1,1,1,1,1
131262,"2136906","London","No","Westminster Academy","Comprehensive (secondary)","Academy sponsor led","The Naim Dangoor Centre","255 Harrow Road",NA,"London","W2 5EZ",1,"0207 1210600",99,1,1,1,1,1,1
137353,"2134673","London","No","The St Marylebone CofE School","Comprehensive (secondary)","Academy converter","64 Marylebone High Street",NA,NA,"London","W1U 5BA",1,"0207 9354704",43,1,1,1,1,1,1
135242,"2136907","London","No","Ark King Solomon Academy","Comprehensive (secondary)","Academy sponsor led","Penfold Street",NA,NA,"London","NW1 6RX",1,"0207 5636900",43,1,1,1,1,1,1
135676,"2136908","London","No","Pimlico Academy","Comprehensive (secondary)","Academy sponsor led","Lupus Street","Pimlico",NA,"London","SW1V 3AT",1,"0207 8280881",108,1,1,1,1,1,1
139791,"3014001","London","No","Riverside School","Comprehensive (secondary)","Free schools","Renwick Road",NA,NA,"Barking","IG11 0FU",2,"0203 9465888",54,1,1,1,1,1,1
135747,"3025427","London","No","JCoSS","Comprehensive (secondary)","Voluntary aided school","Castle Wood Road",NA,NA,"New Barnet","EN4 9GE",2,"0208 3442220",18,1,1,1,1,1,1
138685,"3024210","London","No","Copthall School","Comprehensive (secondary)","Academy converter","Pursley Road","Mill Hill",NA,"London","NW7 2EP",3,"0208 9591937",75,1,1,1,1,1,1
136308,"3025406","London","No","Ashmole Academy","Comprehensive (secondary)","Academy converter","Cecil Road","Southgate",NA,"London","N14 5RJ",1,"0208 3612703",35,1,1,1,1,1,1
137386,"3025402","London","No","Mill Hill County High School","Comprehensive (secondary)","Academy converter","Worcester Crescent","Mill Hill",NA,"London","NW7 4LL",2,"0844 4772424",73,1,1,1,1,1,1
135507,"3026906","London","No","Wren Academy","Comprehensive (secondary)","Academy sponsor led","Hilton Avenue","North Finchley",NA,"London","N12 9HB",1,"0208 4926000",42,1,1,1,1,1,1
137131,"3024208","London","No","Queen Elizabeth's Girls' School","Comprehensive (secondary)","Academy converter","High Street",NA,NA,"Barnet","EN5 5RR",2,"0208 4492984",46,1,1,1,1,1,1
101364,"3025407","London","No","St James' Catholic High School","Comprehensive (secondary)","Voluntary aided school","Great Strand","Colindale",NA,"London","NW9 5PE",2,"0208 3582800",61,1,1,1,1,1,1
101361,"3025404","London","No","St Michael's Catholic Grammar School","Selective (grammar)","Voluntary aided school","Nether Street","North Finchley",NA,"London","N12 7NJ",1,"0208 4462256",7,1,1,1,1,1,1
136290,"3025401","London","No","Queen Elizabeth's School, Barnet","Selective (grammar)","Academy converter","Queen's Road",NA,NA,"Barnet","EN5 4DQ",1,"0208 4414646",6,1,1,1,1,1,1
137388,"3024211","London","No","Christ's College Finchley","Comprehensive (secondary)","Academy converter","East End Road","East Finchley",NA,"London","N2 0SE",2,"0208 3493581",57,1,1,1,1,1,1
136418,"3024215","London","No","The Compton School","Comprehensive (secondary)","Academy converter","Summers Lane",NA,NA,"London","N12 0QG",1,"0208 3681783",70,1,1,1,1,1,1
137374,"3024009","London","Yes","The Totteridge Academy","Comprehensive (secondary)","Academy converter","Barnet Lane",NA,NA,"London","N20 8AZ",NA,"0208 4459205",50,1,1,1,1,1,1
101362,"3025405","London","No","Finchley Catholic High School","Comprehensive (secondary)","Voluntary aided school","Woodside Lane","Finchley",NA,"London","N12 8TA",2,"0208 4450105",21,1,1,1,1,1,1
136334,"3035403","London","No","Beths Grammar School","Selective (grammar)","Academy converter","Hartford Road",NA,NA,"Bexley","DA5 1NE",1,"0132 2556538",10,1,1,1,1,1,1
136369,"3034000","London","No","Bexley Grammar School","Selective (grammar)","Academy converter","Danson Lane",NA,NA,"Welling","DA16 2BL",1,"0208 3048538",17,1,1,1,1,1,1
137769,"3034001","London","No","Townley Grammar School","Selective (grammar)","Academy converter","Townley Road",NA,NA,"Bexleyheath","DA6 7AB",1,"0208 3048311",17,1,1,1,1,1,1
137423,"3034009","London","No","Chislehurst and Sidcup Grammar School","Selective (grammar)","Academy converter","Hurst Road",NA,NA,"Sidcup","DA15 9AG",2,"0208 3026511",10,1,1,1,1,1,1
135677,"3036906","London","No","Harris Academy Falconwood","Comprehensive (secondary)","Academy sponsor led","The Green",NA,NA,"Welling","DA16 2PE",1,"0208 3044916",30,1,1,1,1,1,1
137681,"3035402","London","No","St Catherine's Catholic School","Comprehensive (secondary)","Academy converter","Watling Street",NA,NA,"Bexleyheath","DA6 7QJ",2,"0132 2556333",36,1,1,1,1,1,1
139319,"3045410","London","No","Preston Manor School","Comprehensive (secondary)","Academy converter","Carlton Avenue East",NA,NA,"Wembley","HA9 8NA",2,"0208 3854040",100,1,1,1,1,1,1
142560,"3045406","London","No","St Gregory's Catholic Science College","Comprehensive (secondary)","Academy converter","Donnington Road","Kenton",NA,"Harrow","HA3 0NB",2,"0208 9078828",47,1,1,1,1,1,1
138457,"3044006","London","No","Wembley High Technology College","Comprehensive (secondary)","Academy converter","East Lane",NA,NA,"Wembley","HA0 3NT",1,"0208 3854800",57,1,1,1,1,1,1
135600,"3046906","London","No","Ark Academy","Comprehensive (secondary)","Academy sponsor led","Forty Avenue",NA,NA,"Wembley","HA9 9JR",1,"0208 9085466",93,1,1,1,1,1,1
136656,"3045400","London","No","Claremont High School","Comprehensive (secondary)","Academy converter","Claremont Avenue","Kenton",NA,"Harrow","HA3 0UH",1,"0208 2044442",47,1,1,1,1,1,1
136709,"3055400","London","No","Bullers Wood School","Comprehensive (secondary)","Academy converter","St Nicolas Lane","Logs Hill",NA,"Chislehurst","BR7 5LJ",1,"0208 4672280",30,1,1,1,1,1,1
137006,"3055412","London","No","Langley Park School for Girls","Comprehensive (secondary)","Academy converter","Hawksbrook Lane","South Eden Park Road",NA,"Beckenham","BR3 3BE",2,"0208 6634199",19,1,1,1,1,1,1
136551,"3055405","London","No","Newstead Wood School","Selective (grammar)","Academy converter","Avebury Road",NA,NA,"Orpington","BR6 9SA",1,"0168 9853626",7,1,1,1,1,1,1
136467,"3055408","London","No","Chislehurst School for Girls","Comprehensive (secondary)","Academy converter","Beaverwood Road","Perry Street",NA,"Chislehurst","BR7 6HE",2,"0208 3003156",49,1,1,1,1,1,1
137379,"3054002","London","No","Harris Girls Academy Bromley","Comprehensive (secondary)","Academy converter","Lennard Road",NA,NA,"Beckenham","BR3 1QR",2,"0208 7785917",36,1,1,1,1,1,1
136644,"3055407","London","No","Hayes School","Comprehensive (secondary)","Academy converter","West Common Road","Hayes",NA,"Bromley","BR2 7DB",1,"0208 4622767",16,1,1,1,1,1,1
101823,"3065405","London","No","Coloma Convent Girls' School","Comprehensive (secondary)","Voluntary aided school","Upper Shirley Road",NA,NA,"Croydon","CR9 5AS",1,"0208 6546228",17,1,1,1,1,1,1
138178,"3065400","London","No","Riddlesdown Collegiate","Comprehensive (secondary)","Academy converter","Honister Heights",NA,NA,"Purley","CR8 1EX",1,"0208 6685136",56,1,1,1,1,1,1
138187,"3064031","London","No","Woodcote High School","Comprehensive (secondary)","Academy converter","Meadow Rise",NA,NA,"Coulsdon","CR5 2EH",2,"0208 6686464",58,1,1,1,1,1,1
135311,"3066906","London","No","Harris City Academy Crystal Palace","Comprehensive (secondary)","Academy sponsor led","Maberley Road","Upper Norwood",NA,"London","SE19 2JH",1,"0208 7712261",38,1,1,1,1,1,1
135654,"3066907","London","No","Oasis Academy Coulsdon","Comprehensive (secondary)","Academy sponsor led","Homefield Road","Old Coulsdon",NA,"Croydon","CR5 1ES",2,"0173 7551161",39,1,1,1,1,1,1
137754,"3065406","London","No","Norbury Manor Business and Enterprise College for Girls","Comprehensive (secondary)","Academy converter","Kensington Avenue",NA,NA,"Thornton Heath","CR7 8BT",2,"0208 6790062",63,1,1,1,1,1,1
137546,"3074602","London","No","Twyford Church of England High School","Comprehensive (secondary)","Academy converter","Twyford Crescent",NA,"Acton","London","W3 9PP",1,"0208 7520141",29,1,1,1,1,1,1
101941,"3075402","London","No","The Ellen Wilkinson School for Girls","Comprehensive (secondary)","Foundation school","Queen's Drive","Acton",NA,"London","W3 0HW",2,"0208 7521525",87,1,1,1,1,1,1
101939,"3075400","London","No","Brentside High School","Comprehensive (secondary)","Foundation school","Greenford Avenue","Hanwell",NA,"London","W7 1JJ",2,"0208 5759162",90,1,1,1,1,1,1
101934,"3074603","London","No","The Cardinal Wiseman Catholic School","Comprehensive (secondary)","Voluntary aided school","Greenford Road",NA,NA,"Greenford","UB6 9AW",2,"0208 5758222",48,1,1,1,1,1,1
137221,"3075403","London","No","Drayton Manor High School","Comprehensive (secondary)","Academy converter","Drayton Bridge Road","Hanwell",NA,"London","W7 1EU",1,"0208 3571900",91,1,1,1,1,1,1
102045,"3084026","London","No","Winchmore School","Comprehensive (secondary)","Community school","Laburnum Grove","Winchmore Hill",NA,"London","N21 3HS",2,"0208 3607773",76,1,1,1,1,1,1
102058,"3085403","London","No","St Ignatius College","Comprehensive (secondary)","Voluntary aided school","Turkey Street",NA,NA,"Enfield","EN1 4NP",2,"0199 2717835",52,1,1,1,1,1,1
102052,"3084702","London","No","Bishop Stopford's School","Comprehensive (secondary)","Voluntary aided school","Brick Lane",NA,NA,"Enfield","EN1 3PU",2,"0208 8041906",53,1,1,1,1,1,1
102048,"3084030","London","No","Enfield County School","Comprehensive (secondary)","Community school","Holly Walk",NA,NA,"Enfield","EN2 6QG",1,"0208 3633030",63,1,1,1,1,1,1
142727,"3084029","London","No","Southgate School","Comprehensive (secondary)","Academy converter","Sussex Way","Cockfosters",NA,"Barnet","EN4 0BL",1,"0208 4499583",53,1,1,1,1,1,1
102055,"3085400","London","No","The Latymer School","Selective (grammar)","Voluntary aided school","Haselbury Road",NA,NA,"London","N9 9TN",1,"0208 8074037",12,1,1,1,1,1,1
102157,"3094033","London","No","Gladesmore Community School","Comprehensive (secondary)","Community school","Crowland Road","Tottenham",NA,"London","N15 6EB",1,"0208 8000884",154,1,1,1,1,1,1
102156,"3094032","London","No","Fortismere School","Comprehensive (secondary)","Foundation school","Southwing","Tetherdown","Muswell Hill","London","N10 1NE",1,"0208 3654400",38,1,1,1,1,1,1
102153,"3094029","London","No","Hornsey School for Girls","Comprehensive (secondary)","Community school","Inderwick Road",NA,NA,"London","N8 9JF",2,"0208 3486191",63,1,1,1,1,1,1
137531,"3094036","London","No","Alexandra Park School","Comprehensive (secondary)","Academy converter","Bidwell Gardens",NA,NA,"London","N11 2AZ",1,"0208 8264880",58,1,1,1,1,1,1
102243,"3104700","London","No","The Sacred Heart Language College","Comprehensive (secondary)","Voluntary aided school","High Street","Wealdstone",NA,"Harrow","HA3 7AY",1,"0208 8639922",26,1,1,1,1,1,1
137075,"3104021","London","No","Park High School","Comprehensive (secondary)","Academy converter","Thistlecroft Gardens",NA,NA,"Stanmore","HA7 1PL",1,"0208 9522803",73,1,1,1,1,1,1
137028,"3104024","London","No","Nower Hill High School","Comprehensive (secondary)","Academy converter","George V Avenue",NA,NA,"Pinner","HA5 5RP",1,"0208 8630877",68,1,1,1,1,1,1
102239,"3104026","London","No","Whitmore High School","Comprehensive (secondary)","Community school","Porlock Avenue",NA,NA,"Harrow","HA2 0AD",1,"0208 8647688",83,1,1,1,1,1,1
137178,"3104032","London","No","Bentley Wood High School","Comprehensive (secondary)","Academy converter","Clamp Hill",NA,NA,"Stanmore","HA7 3JW",1,"0208 9543623",72,1,1,1,1,1,1
138227,"3104000","London","No","Avanti House School","Comprehensive (secondary)","Free schools","Beaulieu Drive",NA,NA,"Pinner","HA5 1NB",2,"0208 2496830",10,1,1,1,1,1,1
137040,"3114700","London","No","The Campion School","Comprehensive (secondary)","Academy converter","Wingletye Lane",NA,NA,"Hornchurch","RM11 3BX",2,"0170 8452332",14,1,1,1,1,1,1
137396,"3114001","London","No","Redden Court School","Comprehensive (secondary)","Academy converter","Cotswold Road","Harold Wood",NA,"Romford","RM3 0TS",2,"0170 8342293",32,1,1,1,1,1,1
137197,"3114000","London","No","Hall Mead School","Comprehensive (secondary)","Academy converter","Marlborough Gardens",NA,NA,"Upminster","RM14 1SF",1,"0170 8225684",26,1,1,1,1,1,1
143428,"3114007","London","No","Harris Academy Rainham","0","Academy sponsor led","Lambs Lane South",NA,NA,"Rainham","RM13 9XD",NA,NA,45,1,1,1,1,1,1
136600,"3115402","London","No","The Coopers' Company and Coborn School","Comprehensive (secondary)","Academy converter","St Mary's Lane",NA,NA,"Upminster","RM14 3HS",2,"0170 8250500",11,1,1,1,1,1,1
137145,"3114600","London","No","St Edward's Church of England School & Sixth Form College","Comprehensive (secondary)","Academy converter","London Road",NA,NA,"Romford","RM7 9NX",3,"0170 8730462",43,1,1,1,1,1,1
136329,"3124654","London","No","Guru Nanak Sikh Academy","Comprehensive (secondary)","Academy converter","Springfield Road",NA,NA,"Hayes","UB4 0LT",2,"0208 5736085",26,1,1,1,1,1,1
136711,"3125403","London","No","Queensmead School","Comprehensive (secondary)","Academy converter","Queens Walk",NA,NA,"Ruislip","HA4 0LS",1,"0208 8456266",58,1,1,1,1,1,1
137077,"3125406","London","No","Rosedale College","Comprehensive (secondary)","Academy converter","Wood End Green Road",NA,NA,"Hayes","UB3 2SE",2,"0208 5732097",36,1,1,1,1,1,1
136631,"3125410","London","No","Swakeleys School for Girls","Comprehensive (secondary)","Academy converter","Clifton Gardens","Hillingdon",NA,"Uxbridge","UB10 0EJ",1,"0189 5251962",55,1,1,1,1,1,1
137618,"3134023","London","No","Springwest Academy","Comprehensive (secondary)","Academy converter","Browells Lane",NA,NA,"Feltham","TW13 7EF",2,"0208 8313000",61,1,1,1,1,1,1
138924,"3134026","London","No","Heston Community School","Comprehensive (secondary)","Academy converter","Heston Road","Heston",NA,"Hounslow","TW5 0QR",2,"0208 5721931",60,1,1,1,1,1,1
102539,"3134028","London","No","The Heathland School","Comprehensive (secondary)","Community school","Wellington Road South",NA,NA,"Hounslow","TW4 5JD",1,"0208 5724411",97,1,1,1,1,1,1
136341,"3134027","London","No","Lampton Academy","Comprehensive (secondary)","Academy converter","Lampton Avenue",NA,NA,"Hounslow","TW3 4EP",1,"0208 5721936",68,1,1,1,1,1,1
136522,"3134029","London","No","Cranford Community College","Comprehensive (secondary)","Academy converter","High Street","Cranford",NA,"Hounslow","TW5 9PD",1,"0208 8972001",71,1,1,1,1,1,1
102545,"3135401","London","No","Gunnersbury Catholic School","Comprehensive (secondary)","Voluntary aided school","The Ride","Boston Manor Road",NA,"Brentford","TW8 9LB",1,"0208 5687281",39,1,1,1,1,1,1
137995,"3134800","London","No","St Mark's Catholic School","Comprehensive (secondary)","Academy converter","106 Bath Road",NA,NA,"Hounslow","TW3 3EJ",1,"0208 5773600",19,1,1,1,1,1,1
138266,"3134000","London","No","Reach Academy Feltham","Comprehensive (secondary)","Free schools","53-55 High Street",NA,NA,"Feltham","TW13 4AB",1,"0208 8931099",24,1,1,1,1,1,1
139989,"3134600","London","No","The Green School for Girls","Comprehensive (secondary)","Academy converter","Busch Corner","London Road",NA,"Isleworth","TW7 5BB",1,"0208 3218080",47,1,1,1,1,1,1
137299,"3145401","London","No","Richard Challoner School","Modern (secondary)","Academy converter","Manor Drive North",NA,NA,"New Malden","KT3 5PE",1,"0208 3305947",16,1,1,1,1,1,1
136910,"3145400","London","No","Tiffin School","Selective (grammar)","Academy converter","Queen Elizabeth Road",NA,NA,"Kingston upon Thames","KT2 6RL",1,"0208 5464638",7,1,1,1,1,1,1
137848,"3144004","London","No","Coombe Girls' School","Modern (secondary)","Academy converter","Clarence Avenue",NA,NA,"New Malden","KT3 3TU",1,"0208 9421242",47,1,1,1,1,1,1
138459,"3145402","London","No","The Holy Cross School","Modern (secondary)","Academy converter","25 Sandal Road",NA,NA,"New Malden","KT3 5AR",1,"0208 3954225",25,1,1,1,1,1,1
102679,"3154500","London","No","Rutlish School","Comprehensive (secondary)","Voluntary controlled school","Watery Lane","Merton Park",NA,"London","SW20 9AD",1,"0208 5421212",54,1,1,1,1,1,1
102673,"3154050","London","No","Ricards Lodge High School","Comprehensive (secondary)","Community school","Lake Road","Wimbledon",NA,"London","SW19 7HB",1,"0208 9462208",66,1,1,1,1,1,1
102681,"3154701","London","No","Wimbledon College","Comprehensive (secondary)","Voluntary aided school","Edge Hill",NA,NA,"London","SW19 4NS",2,"0208 9462533",30,1,1,1,1,1,1
140373,"3164005","London","No","Langdon Academy","Comprehensive (secondary)","Academy sponsor led","Sussex Road","East Ham",NA,"London","E6 2PS",3,"0208 4712411",176,1,1,1,1,1,1
139703,"3164003","London","No","Chobham Academy","Comprehensive (secondary)","Academy sponsor led","40 Cheering Lane",NA,NA,"London","E20 1BD",1,"0203 7476060",29,1,1,1,1,1,1
102785,"3164035","London","Yes","Sarah Bonnell School","Comprehensive (secondary)","Community school","Deanery Road",NA,NA,"London","E15 4LP",2,"0208 5346791",153,1,1,1,1,1,1
136669,"3164031","London","No","Brampton Manor Academy","Comprehensive (secondary)","Academy converter","Roman Road",NA,NA,"London","E6 3SQ",1,"0207 5400500",178,1,1,1,1,1,1
102787,"3164601","London","No","St Bonaventure's RC School","Comprehensive (secondary)","Voluntary aided school","Boleyn Road","Forest Gate",NA,"London","E7 9QD",1,"0208 4723844",74,1,1,1,1,1,1
102775,"3164008","London","Yes","Forest Gate Community School","Comprehensive (secondary)","Community school","Forest Lane",NA,NA,"London","E7 9BB",NA,"0208 5348666",90,1,1,1,1,1,1
138196,"3164001","London","No","School 21","Comprehensive (secondary)","Free schools","Pitchford Street",NA,NA,"Stratford","E15 4RZ",1,"0208 2622121",48,1,1,1,1,1,1
102778,"3164025","London","Yes","Lister Community School","Comprehensive (secondary)","Community school","St Mary's Road","Plaistow",NA,"London","E13 9AE",2,"0208 4713311",164,1,1,1,1,1,1
102786,"3164600","London","No","St Angela's Ursuline School","Comprehensive (secondary)","Voluntary aided school","St George's Road","Forest Gate",NA,"London","E7 8HU",1,"0208 4726022",92,1,1,1,1,1,1
102777,"3164016","London","Yes","Rokeby School","Comprehensive (secondary)","Community school","Barking Road",NA,NA,"London","E16 4DD",2,"0208 5348946",112,1,1,1,1,1,1
102850,"3174007","London","No","Ilford County High School","Selective (grammar)","Community school","Fremantle Road","Barkingside",NA,"Ilford","IG6 2JB",1,"0208 5516496",15,1,1,1,1,1,1
102861,"3174604","London","No","Kantor King Solomon High School","Comprehensive (secondary)","Voluntary aided school","Forest Road","Barkingside",NA,"Ilford","IG6 3HB",2,"0208 4981300",39,1,1,1,1,1,1
138518,"3174001","London","No","Ark Isaac Newton Academy","Comprehensive (secondary)","Academy sponsor led","1 Cricklefield Place",NA,NA,"Ilford","IG1 1FY",1,"0208 9116666",55,1,1,1,1,1,1
140575,"3174030","London","No","Beal High School","Comprehensive (secondary)","Academy converter","Woodford Bridge Road",NA,NA,"Ilford","IG4 5LP",1,"0208 5514954",43,1,1,1,1,1,1
102852,"3174025","London","No","Woodford County High School","Selective (grammar)","Community school","High Road",NA,NA,"Woodford Green","IG8 9LA",1,"0208 5040611",7,1,1,1,1,1,1
102854,"3174029","London","No","Woodbridge High School","Comprehensive (secondary)","Community school","St Barnabas Road",NA,NA,"Woodford Green","IG8 7DQ",2,"0208 5049618",58,1,1,1,1,1,1
138825,"3184006","London","No","Grey Court School","Comprehensive (secondary)","Academy converter","Ham Street","Ham",NA,"Richmond","TW10 7HN",1,"0208 9481173",44,1,1,1,1,1,1
138461,"3184021","London","No","Waldegrave School","Comprehensive (secondary)","Academy converter","Fifth Cross Road",NA,NA,"Twickenham","TW2 5LH",1,"0208 8943244",27,1,1,1,1,1,1
138651,"3184010","London","No","Orleans Park School","Comprehensive (secondary)","Academy converter","Richmond Road",NA,NA,"Twickenham","TW1 3BB",1,"0208 8910187",31,1,1,1,1,1,1
103013,"3195406","London","No","St Philomena's Catholic High School for Girls","Comprehensive (secondary)","Voluntary aided school","Pound Street",NA,NA,"Carshalton","SM5 3PS",1,"0208 6422025",27,1,1,1,1,1,1
136795,"3195401","London","No","Nonsuch High School for Girls","Selective (grammar)","Academy converter","Ewell Road","Cheam",NA,"Sutton","SM3 8AB",2,"0208 3943400",9,1,1,1,1,1,1
136789,"3195405","London","No","Wallington High School for Girls","Selective (grammar)","Academy converter","Woodcote Road",NA,NA,"Wallington","SM6 0PH",2,"0208 6472380",10,1,1,1,1,1,1
136914,"3194011","London","No","Glenthorne High School","Comprehensive (secondary)","Academy converter","Sutton Common Road",NA,NA,"Sutton","SM3 9PS",1,"0208 6446307",54,1,1,1,1,1,1
136798,"3195407","London","No","Wallington County Grammar School","Selective (grammar)","Academy converter","Croydon Road",NA,NA,"Wallington","SM6 7PH",1,"0208 6472235",13,1,1,1,1,1,1
136621,"3195400","London","No","Wilson's School","Selective (grammar)","Academy converter","Mollison Drive",NA,NA,"Wallington","SM6 9JW",1,"0208 7732931",7,1,1,1,1,1,1
136787,"3195404","London","No","Sutton Grammar School","Selective (grammar)","Academy converter","Manor Lane",NA,NA,"Sutton","SM1 4AS",1,"0208 6423821",8,1,1,1,1,1,1
103103,"3204072","London","No","Walthamstow School for Girls","Comprehensive (secondary)","Community school","Church Hill","Walthamstow",NA,"London","E17 9RZ",2,"0208 5099446",63,1,1,1,1,1,1
137045,"3305407","West Midlands","No","King Edward VI Camp Hill School for Boys","Selective (grammar)","Academy converter","Vicarage Road","Kings Heath",NA,"Birmingham","B14 7QJ",1,"0121 4443188",8,1,1,1,1,1,1
142219,"3304009","West Midlands","No","Waverley School","Comprehensive (secondary)","Academy converter","Yardley Green Road","Bordesley Green",NA,"Birmingham","B9 5QA",1,"0121 5666600",98,1,1,1,1,1,1
136590,"3305414","West Midlands","No","Kings Norton Girls' School","Comprehensive (secondary)","Academy converter","Selly Oak Road",NA,NA,"Birmingham","B30 1HW",2,"0121 6751305",32,1,1,1,1,1,1
103531,"3304606","West Midlands","No","St Paul's School for Girls","Comprehensive (secondary)","Voluntary aided school","Vernon Road","Edgbaston",NA,"Birmingham","B16 9SL",1,"0121 4540895",56,1,1,1,1,1,1
136778,"3304300","West Midlands","No","Sutton Coldfield Grammar School for Girls","Selective (grammar)","Academy converter","Jockey Road",NA,NA,"Sutton Coldfield","B73 5PT",1,"0121 3541479",12,1,1,1,1,1,1
137047,"3305404","West Midlands","No","King Edward VI Handsworth School","Selective (grammar)","Academy converter","Rose Hill Road",NA,NA,"Birmingham","B21 9AR",1,"0121 5542342",9,1,1,1,1,1,1
138136,"3304307","West Midlands","No","The Arthur Terry School","Comprehensive (secondary)","Academy converter","Kittoe Road","Four Oaks",NA,"Sutton Coldfield","B74 4RZ",1,"0121 3232221",37,1,1,1,1,1,1
136592,"3304060","West Midlands","No","Lordswood Girls' School and Sixth Form Centre","Comprehensive (secondary)","Academy converter","Knightlow Road","Harborne",NA,"Birmingham","B17 8QB",1,"0121 4292838",39,1,1,1,1,1,1
137988,"3304660","West Midlands","No","Bishop Vesey's Grammar School","Selective (grammar)","Academy converter","Lichfield Road",NA,NA,"Sutton Coldfield","B74 2NH",1,"0121 2505400",19,1,1,1,1,1,1
103501,"3304193","West Midlands","No","Wheelers Lane Technology College","Comprehensive (secondary)","Community school","Wheelers Lane","Kings Heath",NA,"Birmingham","B13 0SF",1,"0121 4442864",40,1,1,1,1,1,1
136908,"3305410","West Midlands","No","Fairfax","Comprehensive (secondary)","Academy converter","Fairfax Road",NA,NA,"Sutton Coldfield","B75 7JT",2,"0121 3781288",45,1,1,1,1,1,1
103483,"3304015","West Midlands","No","Hodge Hill Girls' School","Comprehensive (secondary)","Community school","Bromford Road","Hodge Hill",NA,"Birmingham","B36 8EY",2,"0121 4643094",55,1,1,1,1,1,1
137043,"3305408","West Midlands","No","King Edward VI Aston School","Selective (grammar)","Academy converter","Frederick Road","Aston",NA,"Birmingham","B6 6DJ",1,"0121 3271130",20,1,1,1,1,1,1
138586,"3304004","West Midlands","No","Nishkam High School","Comprehensive (secondary)","Free schools","Great King Street North",NA,NA,"Birmingham","B19 2LF",1,"0121 3487660",27,1,1,1,1,1,1
103562,"3305415","West Midlands","No","King's Norton Boys' School","Comprehensive (secondary)","Foundation school","Northfield Road",NA,NA,"Birmingham","B30 1DY",2,"0121 6280010",34,1,1,1,1,1,1
103514,"3304237","West Midlands","No","Swanshurst School","Comprehensive (secondary)","Community school","Brook Lane","Billesley",NA,"Birmingham","B13 0TW",1,"0121 4642400",130,1,1,1,1,1,1
137044,"3305406","West Midlands","No","King Edward VI Camp Hill School for Girls","Selective (grammar)","Academy converter","Vicarage Road","Kings Heath",NA,"Birmingham","B14 7QJ",1,"0121 4442150",12,1,1,1,1,1,1
133306,"3304334","West Midlands","No","Al-Hijrah School","Comprehensive (secondary)","Voluntary aided school","Burbidge Road","Bordesley Green",NA,"Birmingham","B9 4US",4,"0121 7737979",59,1,1,1,1,1,1
136152,"3306906","West Midlands","No","King Edward VI Sheldon Heath Academy","Comprehensive (secondary)","Academy sponsor led","Sheldon Heath Road","Sheldon",NA,"Birmingham","B26 2RZ",2,"0121 4644428",97,1,1,1,1,1,1
139746,"3304240","West Midlands","No","Hamstead Hall Academy","Comprehensive (secondary)","Academy converter","Craythorne Avenue","Handsworth Wood",NA,"Birmingham","B20 1HL",2,"0121 3867510",75,1,1,1,1,1,1
136963,"3314037","West Midlands","No","Finham Park School","Comprehensive (secondary)","Academy converter","Green Lane",NA,NA,"Coventry","CV3 6EA",1,"0247 6418135",26,1,1,1,1,1,1
136126,"3316906","West Midlands","No","Sidney Stringer Academy","Comprehensive (secondary)","Academy sponsor led","2 Primrose Hill Street",NA,NA,"Coventry","CV1 5LY",1,"0247 6251756",111,1,1,1,1,1,1
103742,"3314701","West Midlands","No","Bishop Ullathorne Catholic School","Comprehensive (secondary)","Voluntary aided school","Leasowes Avenue",NA,NA,"Coventry","CV3 6BH",2,"0247 6414515",36,1,1,1,1,1,1
137272,"3314800","West Midlands","No","Blue Coat Church of England School and Music College","Comprehensive (secondary)","Academy converter","Terry Road",NA,NA,"Coventry","CV1 2BA",2,"0247 6223542",41,1,1,1,1,1,1
139872,"3324119","West Midlands","No","Redhill School","Comprehensive (secondary)","Academy converter","Junction Road",NA,NA,"Stourbridge","DY8 1JX",1,"0138 4816355",29,1,1,1,1,1,1
136310,"3344014","West Midlands","No","Tudor Grange Academy, Solihull","Comprehensive (secondary)","Academy converter","Dingle Lane",NA,NA,"Solihull","B91 3PD",1,"0121 7055100",17,1,1,1,1,1,1
136333,"3344017","West Midlands","No","Arden","Comprehensive (secondary)","Academy converter","Station Road","Knowle",NA,"Solihull","B93 0PT",1,"0156 4773348",20,1,1,1,1,1,1
104119,"3344650","West Midlands","No","St Peter's Catholic School and Specialist Science College","Comprehensive (secondary)","Voluntary aided school","Whitefields Road",NA,NA,"Solihull","B91 3NZ",1,"0121 7053988",22,1,1,1,1,1,1
136773,"3355404","West Midlands","No","Queen Mary's Grammar School","Selective (grammar)","Academy converter","Sutton Road",NA,NA,"Walsall","WS1 2PG",1,"0192 2720696",13,1,1,1,1,1,1
136777,"3355403","West Midlands","No","Queen Mary's High School","Selective (grammar)","Academy converter","Upper Forster Street",NA,NA,"Walsall","WS4 2AE",1,"0192 2721013",8,1,1,1,1,1,1
137916,"3415404","North West","No","The Blue Coat School","Selective (grammar)","Academy converter","Church Road","Wavertree",NA,"Liverpool","L15 9EE",1,"0151 7331407",12,1,1,1,1,1,1
135174,"3416907","North West","No","The Belvedere Academy","Comprehensive (secondary)","Academy sponsor led","17 Belvidere Road","Princes Park",NA,"Liverpool","L8 3TF",1,"0151 7271284",28,1,1,1,1,1,1
139686,"3414004","North West","No","Liverpool College","Comprehensive (secondary)","Academy sponsor led","Queen's Drive","Mossley Hill",NA,"Liverpool","L18 8BG",2,"0151 7244000",11,1,1,1,1,1,1
104703,"3414690","North West","No","King David High School","Comprehensive (secondary)","Voluntary aided school","Childwall Road",NA,NA,"Liverpool","L15 6UZ",1,"0151 2351420",7,1,1,1,1,1,1
137604,"3434109","North West","No","Greenbank High School","Comprehensive (secondary)","Academy converter","Hastings Road",NA,NA,"Southport","PR8 2LT",1,"0170 4567591",36,1,1,1,1,1,1
137171,"3444052","North West","No","Wirral Grammar School for Girls","Selective (grammar)","Academy converter","Heath Road","Bebington",NA,"Wirral","CH63 3AF",1,"0151 6448282",14,1,1,1,1,1,1
137929,"3445901","North West","No","Upton Hall School FCJ","Selective (grammar)","Academy converter","Upton",NA,NA,"Wirral","CH49 6LJ",1,"0151 6777696",16,1,1,1,1,1,1
137243,"3444056","North West","No","West Kirby Grammar School","Selective (grammar)","Academy converter","Graham Road","West Kirby",NA,"Wirral","CH48 5DP",1,"0151 6323449",21,1,1,1,1,1,1
142232,"3504048","North West","No","Sharples School","Comprehensive (secondary)","Academy converter","Hill Cot Road","Sharples",NA,"Bolton","BL1 8SN",2,"0120 4333253",33,1,1,1,1,1,1
142340,"3504806","North West","No","Bolton Muslim Girls School","Comprehensive (secondary)","Academy converter","Swan Lane",NA,NA,"Bolton","BL3 6TQ",1,"0120 4361103",36,1,1,1,1,1,1
143260,"3524248","North West","No","Parrs Wood High School","Comprehensive (secondary)","Academy converter","Wilmslow Road","East Didsbury",NA,"Manchester","M20 5PG",2,"0161 4468640",96,1,1,1,1,1,1
141196,"3524005","North West","No","Levenshulme High School","Not applicable","Academy sponsor led","Crossley Road","Levenshulme",NA,"Manchester","M19 1FS",1,"0161 2244625",83,1,1,1,1,1,1
139148,"3524281","North West","No","Chorlton High School","Comprehensive (secondary)","Academy converter","Nell Lane","Chorlton-Cum-Hardy",NA,"Manchester","M21 7SL",2,"0161 8821150",113,1,1,1,1,1,1
137133,"3534600","North West","No","The Blue Coat CofE School","Comprehensive (secondary)","Academy converter","Egerton Street",NA,NA,"Oldham","OL1 3SQ",1,"0161 6241484",30,1,1,1,1,1,1
105986,"3554616","North West","No","St Patrick's RC High School and Arts College","Comprehensive (secondary)","Voluntary aided school","56 New Lane","Eccles",NA,"Manchester","M30 7JJ",1,"0161 9212300",45,1,1,1,1,1,1
137843,"3564039","North West","No","Cheadle Hulme High School","Comprehensive (secondary)","Academy converter","Woods Lane","Cheadle Hulme",NA,"Cheadle","SK8 7JY",1,"0161 4857201",31,1,1,1,1,1,1
106270,"3574602","North West","No","St Damian's RC Science College","Comprehensive (secondary)","Voluntary aided school","Lees Road",NA,NA,"Ashton-under-Lyne","OL6 8BH",1,"0161 3305974",48,1,1,1,1,1,1
106266,"3574018","North West","No","Mossley Hollins High School","Comprehensive (secondary)","Community school","Huddersfield Road","Mossley",NA,"Ashton-under-Lyne","OL5 9DP",1,"0145 7832491",42,1,1,1,1,1,1
106271,"3574603","North West","No","St Thomas More RC College Specialising in Mathematics and Computing","Comprehensive (secondary)","Voluntary aided school","Town Lane","Denton",NA,"Manchester","M34 6AF",2,"0161 3362743",35,1,1,1,1,1,1
136593,"3575402","North West","No","Fairfield High School for Girls","Comprehensive (secondary)","Academy converter","Fairfield Avenue","Droylsden",NA,"Manchester","M43 6AB",1,"0161 3701488",41,1,1,1,1,1,1
138464,"3585901","North West","No","Loreto Grammar School","Selective (grammar)","Academy converter","Dunham Road",NA,NA,"Altrincham","WA14 4AH",1,"0161 9283703",6,1,1,1,1,1,1
106368,"3584025","North West","No","Stretford Grammar School","Selective (grammar)","Foundation school","Granby Road","Stretford",NA,"Manchester","M32 8JB",2,"0161 8652293",28,1,1,1,1,1,1
138134,"3585900","North West","No","Saint Ambrose College","Selective (grammar)","Academy converter","Hale Road","Hale Barns",NA,"Altrincham","WA15 0HE",1,"0161 9802711",8,1,1,1,1,1,1
136498,"3584029","North West","No","Sale Grammar School","Selective (grammar)","Academy converter","Marsland Road",NA,NA,"Sale","M33 3NH",1,"0161 9733217",13,1,1,1,1,1,1
136377,"3585400","North West","No","Wellington School","Modern (secondary)","Academy converter","Wellington Road","Timperley",NA,"Altrincham","WA15 7RH",2,"0161 9284157",30,1,1,1,1,1,1
137289,"3585407","North West","No","Altrincham Grammar School for Girls","Selective (grammar)","Academy converter","Cavendish Road","Bowdon",NA,"Altrincham","WA14 2NL",1,"0161 9125912",7,1,1,1,1,1,1
136672,"3715400","Yorkshire and The Humber","No","The Hayfield School","Comprehensive (secondary)","Academy converter","Hurst Lane","Auckley",NA,"Doncaster","DN9 3HG",2,"0130 2770589",29,1,1,1,1,1,1
140646,"3724018","Yorkshire and The Humber","No","Wickersley School and Sports College","Comprehensive (secondary)","Academy converter","Bawtry Road","Wickersley",NA,"Rotherham","S66 1JL",1,"0170 9542147",55,1,1,1,1,1,1
139167,"3734229","Yorkshire and The Humber","No","Silverdale School","Comprehensive (secondary)","Academy converter","Bents Crescent",NA,NA,"Sheffield","S11 9QH",1,"0114 2369991",37,1,1,1,1,1,1
138361,"3735400","Yorkshire and The Humber","No","Notre Dame High School","Comprehensive (secondary)","Academy converter","Fulwood Road",NA,NA,"Sheffield","S10 3BT",1,"0114 2302536",13,1,1,1,1,1,1
138069,"3734234","Yorkshire and The Humber","No","Tapton School","Comprehensive (secondary)","Academy converter","Darwin Lane",NA,NA,"Sheffield","S10 5RG",1,"0114 2671414",34,1,1,1,1,1,1
136905,"3804502","Yorkshire and The Humber","No","Ilkley Grammar School","Comprehensive (secondary)","Academy converter","Cowpasture Road",NA,NA,"Ilkley","LS29 8TR",1,"0194 3608424",23,1,1,1,1,1,1
130909,"3806905","Yorkshire and The Humber","No","Dixons City Academy","Comprehensive (secondary)","Academy sponsor led","Ripley Street",NA,NA,"Bradford","BD5 7RR",2,"0127 4776777",56,1,1,1,1,1,1
107439,"3805400","Yorkshire and The Humber","Yes","Bingley Grammar School","Comprehensive (secondary)","Voluntary aided school","Keighley Road",NA,NA,"Bingley","BD16 2RS",2,"0127 4807700",62,1,1,1,1,1,1
139975,"3804064","Yorkshire and The Humber","No","Beckfoot School","Comprehensive (secondary)","Academy converter","Wagon Lane",NA,NA,"Bingley","BD16 1EE",1,"0127 4771444",58,1,1,1,1,1,1
138251,"3804010","Yorkshire and The Humber","No","Dixons Trinity Academy","Comprehensive (secondary)","Free schools","Trinity Road",NA,NA,"Bradford","BD5 0BE",1,"0127 4424350",38,1,1,1,1,1,1
137277,"3804004","Yorkshire and The Humber","No","Dixons Kings Academy","Comprehensive (secondary)","Free schools","Northside Road",NA,NA,"Bradford","BD7 2AN",1,"0127 4449706",70,1,1,1,1,1,1
139182,"3815401","Yorkshire and The Humber","No","The Crossley Heath School","Selective (grammar)","Academy converter","Savile Park",NA,NA,"Halifax","HX3 0HG",1,"0142 2360272",6,1,1,1,1,1,1
137487,"3826012","Yorkshire and The Humber","No","Batley Grammar School","Comprehensive (secondary)","Free schools","Carlinghow Hill",NA,NA,"Batley","WF17 0AD",2,"0192 4474980",19,1,1,1,1,1,1
137424,"3824048","Yorkshire and The Humber","No","Batley Girls High School","Comprehensive (secondary)","Academy converter","Windmill Lane",NA,NA,"Batley","WF17 0LD",1,"0192 4350080",60,1,1,1,1,1,1
136283,"3825401","Yorkshire and The Humber","No","Heckmondwike Grammar School","Selective (grammar)","Academy converter","High Street",NA,NA,"Heckmondwike","WF16 0AH",1,"0192 4402202",18,1,1,1,1,1,1
137352,"3824049","Yorkshire and The Humber","No","Shelley College","Comprehensive (secondary)","Academy converter","Huddersfield Road","Shelley",NA,"Huddersfield","HD8 8NL",1,"0148 4868773",39,1,1,1,1,1,1
137083,"3835400","Yorkshire and The Humber","No","Abbey Grange Church of England Academy","Comprehensive (secondary)","Academy converter","Butcher Hill",NA,NA,"Leeds","LS16 5EA",2,"0113 2757877",46,1,1,1,1,1,1
137383,"3834105","Yorkshire and The Humber","No","Woodkirk Academy","Comprehensive (secondary)","Academy converter","Rein Road","Tingley",NA,"Wakefield","WF3 1JQ",2,"0113 8873600",55,1,1,1,1,1,1
136392,"3834101","Yorkshire and The Humber","No","The Morley Academy","Comprehensive (secondary)","Academy converter","Fountain Street","Morley",NA,"Leeds","LS27 0PD",1,"0113 2532952",55,1,1,1,1,1,1
108055,"3834006","Yorkshire and The Humber","No","Lawnswood School","Comprehensive (secondary)","Community school","Ring Road","West Park",NA,"Leeds","LS16 5AG",2,"0113 2844020",75,1,1,1,1,1,1
108095,"3834751","Yorkshire and The Humber","No","Cardinal Heenan Catholic High School","Comprehensive (secondary)","Voluntary aided school","Tongue Lane","Meanwood",NA,"Leeds","LS6 4QE",2,"0113 8873240",50,1,1,1,1,1,1
108057,"3834032","Yorkshire and The Humber","No","Allerton High School","Comprehensive (secondary)","Community school","King Lane",NA,NA,"Leeds","LS17 7AG",2,"0113 2034770",42,1,1,1,1,1,1
137704,"3834501","Yorkshire and The Humber","No","Otley Prince Henry's Grammar School Specialist Language College","Comprehensive (secondary)","Academy converter","Farnley Lane",NA,NA,"Otley","LS21 2BB",2,"0194 3463524",35,1,1,1,1,1,1
137852,"3904605","North East","No","Cardinal Hume Catholic School","Comprehensive (secondary)","Academy converter","Old Durham Road","Beacon Lough",NA,"Gateshead","NE9 6RZ",1,"0191 4877638",44,1,1,1,1,1,1
108420,"3906900","North East","No","Emmanuel College","Comprehensive (secondary)","City technology college","Consett Road","Lobley Hill",NA,"Gateshead","NE11 0AN",1,"0191 4602099",26,1,1,1,1,1,1
137708,"3914716","North East","No","Sacred Heart Catholic High School","Comprehensive (secondary)","Academy converter","Fenham Hall Drive","Fenham",NA,"Newcastle-upon-Tyne","NE4 9YH",1,"0191 2747373",61,1,1,1,1,1,1
140081,"3914714","North East","No","St Mary's Catholic School","Comprehensive (secondary)","Academy converter","Benton Park Road",NA,NA,"Newcastle-upon-Tyne","NE7 7PE",1,"0191 2153260",41,1,1,1,1,1,1
137734,"3924605","North East","No","St Thomas More Roman Catholic Academy","Comprehensive (secondary)","Academy converter","Lynn Road",NA,NA,"North Shields","NE29 8LF",2,"0191 2588340",58,1,1,1,1,1,1
138054,"3944610","North East","No","St Anthony's Girls' Catholic Academy","Comprehensive (secondary)","Academy converter","Thornhill Terrace",NA,NA,"Sunderland","SR2 7JN",1,"0191 5658904",52,1,1,1,1,1,1
136966,"8004107","South West","No","Hayesfield Girls School","Comprehensive (secondary)","Academy converter","Upper Oldfield Park",NA,NA,"Bath","BA2 3LA",2,"0122 5426151",24,1,1,1,1,1,1
141705,"8014101","South West","No","Fairfield High School","Comprehensive (secondary)","Academy converter","Allfoxton Road","Horfield",NA,"Bristol","BS7 9NL",2,"0117 9527100",47,1,1,1,1,1,1
135581,"8016909","South West","No","Colston's Girls' School","Comprehensive (secondary)","Academy sponsor led","Cheltenham Road",NA,NA,"Bristol","BS6 5RD",1,"0117 9424328",43,1,1,1,1,1,1
136856,"8024135","South West","No","Gordano School","Comprehensive (secondary)","Academy converter","St Mary's Road","Portishead",NA,"Bristol","BS20 7QR",1,"0127 5842606",36,1,1,1,1,1,1
139405,"8054001","North East","No","Dyke House Sports and Technology College","Comprehensive (secondary)","Academy sponsor led","Mapleton Road",NA,NA,"Hartlepool","TS24 8NQ",2,"0142 9266377",88,1,1,1,1,1,1
111751,"8064136","North East","No","Acklam Grange School","Comprehensive (secondary)","Community school","Lodore Grove",NA,NA,"Middlesbrough","TS5 8PB",2,"0164 2277700",87,1,1,1,1,1,1
139606,"8084001","North East","No","All Saints Academy","Comprehensive (secondary)","Academy converter","Blair Avenue","Ingleby Barwick",NA,"Stockton-on-Tees","TS17 5BL",1,"0164 2754650",17,1,1,1,1,1,1
118117,"8104626","Yorkshire and The Humber","Yes","St Mary's College","Comprehensive (secondary)","Voluntary aided school","Cranbrook Avenue",NA,NA,"Hull","HU6 7TN",NA,"0148 2851136",64,1,1,1,1,1,1
137200,"8124092","Yorkshire and The Humber","No","Humberston Academy","Comprehensive (secondary)","Academy converter","Humberston Avenue","Humberston",NA,"Grimsby","DN36 4TF",1,"0147 2319990",21,1,1,1,1,1,1
136277,"8124084","Yorkshire and The Humber","No","Healing Science Academy","Comprehensive (secondary)","Academy converter","Low Road","Healing",NA,"Grimsby","DN41 7QD",1,"0147 2502400",21,1,1,1,1,1,1
137139,"8154611","Yorkshire and The Humber","No","St Aidan's Church of England High School","Comprehensive (secondary)","Academy converter","Oatlands Drive",NA,NA,"Harrogate","HG2 8JR",1,"0142 3885814",16,1,1,1,1,1,1
136497,"8154200","Yorkshire and The Humber","No","Harrogate Grammar School","Comprehensive (secondary)","Academy converter","Arthurs Avenue",NA,NA,"Harrogate","HG2 0DZ",1,"0142 3531127",14,1,1,1,1,1,1
121715,"8154605","Yorkshire and The Humber","No","St Francis Xavier School","Comprehensive (secondary)","Voluntary aided school","Darlington Road",NA,NA,"Richmond","DL10 7DA",1,"0174 8823414",9,1,1,1,1,1,1
121717,"8154609","Yorkshire and The Humber","No","St John Fisher Catholic High School","Comprehensive (secondary)","Voluntary aided school","Hookstone Drive",NA,NA,"Harrogate","HG2 8PT",1,"0142 3887254",11,1,1,1,1,1,1
143288,"8154073","Yorkshire and The Humber","No","Scalby School","Comprehensive (secondary)","Academy converter","Fieldstead Crescent","Newby",NA,"Scarborough","YO12 6TH",2,"0172 3362301",40,1,1,1,1,1,1
136896,"8154217","Yorkshire and The Humber","No","Rossett School","Comprehensive (secondary)","Academy converter","Green Lane",NA,NA,"Harrogate","HG2 9JP",1,"0142 3564444",38,1,1,1,1,1,1
136617,"8164500","Yorkshire and The Humber","No","Archbishop Holgate's School, A Church of England Academy","Comprehensive (secondary)","Academy converter","Hull Road",NA,NA,"York","YO10 5ZA",1,"0190 4411341",33,1,1,1,1,1,1
136544,"8164602","Yorkshire and The Humber","No","Manor Church of England Academy Trust","Comprehensive (secondary)","Academy converter","Millfield Lane","Nether Poppleton",NA,"York","YO26 6PA",1,"0190 4798722",20,1,1,1,1,1,1
121684,"8164153","Yorkshire and The Humber","Yes","Fulford School","Comprehensive (secondary)","Community school","Fulfordgate","Heslington Lane","Fulford","York","YO10 4FY",1,"0190 4633300",18,1,1,1,1,1,1
121673,"8164063","Yorkshire and The Humber","No","Huntington School","Comprehensive (secondary)","Community school","Huntington Road","Huntington",NA,"York","YO32 9WT",1,"0190 4752100",42,1,1,1,1,1,1
136470,"8225402","East","No","Sharnbrook Academy","Comprehensive (secondary)","Academy converter","Odell Road","Sharnbrook",NA,"Bedford","MK44 1JL",2,"0123 4782211",50,1,1,1,1,1,1
136846,"8254058","South East","No","Aylesbury High School","Selective (grammar)","Academy converter","Walton Road",NA,NA,"Aylesbury","HP21 7SX",1,"0129 6388222",8,1,1,1,1,1,1
137219,"8254061","South East","No","Dr Challoner's High School","Selective (grammar)","Academy converter","Cokes Lane","Little Chalfont",NA,"Amersham","HP7 9QB",1,"0149 4763296",7,1,1,1,1,1,1
137091,"8254079","South East","No","Chesham Grammar School","Selective (grammar)","Academy converter","White Hill",NA,NA,"Chesham","HP5 1BA",1,"0149 4782854",15,1,1,1,1,1,1
136771,"8254009","South East","No","John Hampden Grammar School","Selective (grammar)","Academy converter","Marlow Hill",NA,NA,"High Wycombe","HP11 1SZ",1,"0149 4529589",8,1,1,1,1,1,1
136730,"8264097","South East","No","Shenley Brook End School","Comprehensive (secondary)","Academy converter","Walbank Grove","Shenley Brook End",NA,"Milton Keynes","MK5 7ZT",2,"0190 8520264",29,1,1,1,1,1,1
112961,"8304195","East Midlands","No","Parkside Community School","Comprehensive (secondary)","Community school","Boythorpe Avenue","Boythorpe",NA,"Chesterfield","S40 2NS",2,"0124 6273458",31,1,1,1,1,1,1
112956,"8314182","East Midlands","No","Littleover Community School","Comprehensive (secondary)","Community school","Pastures Hill","Littleover",NA,"Derby","DE23 4BZ",1,"0133 2513219",31,1,1,1,1,1,1
137163,"8354615","South West","No","The Thomas Hardye School","Comprehensive (secondary)","Academy converter","Queen's Avenue",NA,NA,"Dorchester","DT1 2ET",1,"0130 5266064",52,1,1,1,1,1,1
113901,"8355401","South West","No","The Woodroffe School","Comprehensive (secondary)","Foundation school","Uplyme Road",NA,NA,"Lyme Regis","DT7 3LX",1,"0129 7442232",15,1,1,1,1,1,1
136368,"8365403","South West","No","Parkstone Grammar School","Selective (grammar)","Academy converter","Sopers Lane",NA,NA,"Poole","BH17 7EP",1,"0120 2605605",10,1,1,1,1,1,1
136850,"8365409","South West","No","Poole Grammar School","Selective (grammar)","Academy converter","Gravel Hill",NA,NA,"Poole","BH17 9JU",3,"0120 2692132",6,1,1,1,1,1,1
137452,"8375400","South West","No","Bournemouth School","Selective (grammar)","Academy converter","East Way",NA,NA,"Bournemouth","BH8 9PY",1,"0120 2512609",15,1,1,1,1,1,1
136996,"8375405","South West","No","Bournemouth School for Girls","Selective (grammar)","Academy converter","Castle Gate Close","Castle Lane West",NA,"Bournemouth","BH8 9UJ",1,"0120 2526289",9,1,1,1,1,1,1
138717,"8404175","North East","No","Woodham Academy","Comprehensive (secondary)","Academy converter","Washington Crescent",NA,NA,"Newton Aycliffe","DL5 4AX",3,"0132 5300328",53,1,1,1,1,1,1
136451,"8404215","North East","No","The Academy at Shotton Hall","Comprehensive (secondary)","Academy converter","Passfield Way",NA,NA,"Peterlee","SR8 1AU",1,"0191 5180222",69,1,1,1,1,1,1
144496,"8404007","North East","No","Teesdale School","0","Academy sponsor led","Prospect Place",NA,NA,"Barnard Castle","DL12 8HH",NA,NA,18,1,1,1,1,1,1
137982,"8454026","South East","No","Beacon Academy","Comprehensive (secondary)","Academy converter","North Beeches Road",NA,NA,"Crowborough","TN6 2AS",2,"0189 2603000",32,1,1,1,1,1,1
114611,"8464605","South East","No","Cardinal Newman Catholic School","Comprehensive (secondary)","Voluntary aided school","The Upper Drive",NA,NA,"Hove","BN3 6ND",3,"0127 3558551",57,1,1,1,1,1,1
136715,"8504175","South East","No","Thornden School","Comprehensive (secondary)","Academy converter","Winchester Road","Chandler's Ford",NA,"Eastleigh","SO53 2DW",1,"0238 0269722",15,1,1,1,1,1,1
116411,"8504113","South East","No","The Toynbee School","Comprehensive (secondary)","Community school","Bodycoats Road","Chandler's Ford",NA,"Eastleigh","SO53 2PL",2,"0238 0269026",22,1,1,1,1,1,1
135965,"8516905","South East","No","Ark Charter Academy","Comprehensive (secondary)","Academy sponsor led","Hyde Park Road",NA,NA,"Southsea","PO5 4HL",2,"0239 2824204",63,1,1,1,1,1,1
138476,"8525417","South East","No","St Anne's Catholic School","Comprehensive (secondary)","Academy converter","Carlton Road",NA,NA,"Southampton","SO15 2WZ",1,"0238 0328200",47,1,1,1,1,1,1
137401,"8554268","East Midlands","No","Woodbrook Vale School","Comprehensive (secondary)","Academy converter","Grasmere Road",NA,NA,"Loughborough","LE11 2ST",2,"0150 9557560",26,1,1,1,1,1,1
138108,"8554016","East Midlands","No","The Market Bosworth School","Comprehensive (secondary)","Academy converter","Station Road","Market Bosworth",NA,"Nuneaton","CV13 0JT",1,"0145 5290251",16,1,1,1,1,1,1
141916,"8564244","East Midlands","No","Rushey Mead Academy","Comprehensive (secondary)","Academy converter","Melton Road",NA,NA,"Leicester","LE4 7AN",1,"0116 2663730",75,1,1,1,1,1,1
138729,"8604610","West Midlands","No","Painsley Catholic College","Comprehensive (secondary)","Academy converter","Station Road","Cheadle",NA,"Stoke-on-Trent","ST10 1LH",1,"0153 8714944",17,1,1,1,1,1,1
124415,"8604100","West Midlands","Yes","Wolgarston High School","Comprehensive (secondary)","Community school","Cannock Road","Penkridge",NA,"Stafford","ST19 5RX",2,"0178 5788400",30,1,1,1,1,1,1
136323,"8604061","West Midlands","No","John Taylor High School","Comprehensive (secondary)","Academy converter","Dunstall Road","Barton-under-Needwood",NA,"Burton-on-Trent","DE13 8AZ",1,"0128 3239300",28,1,1,1,1,1,1
136911,"8654067","South West","No","Royal Wootton Bassett Academy","Comprehensive (secondary)","Academy converter","Lime Kiln","Royal Wootton Bassett",NA,"Swindon","SN4 7HG",1,"0179 3841900",33,1,1,1,1,1,1
137375,"8655400","South West","No","St Augustine's Catholic College","Comprehensive (secondary)","Academy converter","Wingfield Road",NA,NA,"Trowbridge","BA14 9EN",1,"0122 5350001",15,1,1,1,1,1,1
142357,"8684036","South East","No","Newlands Girls' School","Comprehensive (secondary)","Academy converter","Farm Road",NA,NA,"Maidenhead","SL6 5JB",2,"0162 8625068",32,1,1,1,1,1,1
138823,"8684029","South East","No","Charters School","Comprehensive (secondary)","Academy converter","Charters Road","Sunningdale",NA,"Ascot","SL5 9QY",1,"0134 4624826",20,1,1,1,1,1,1
137465,"8695402","South East","No","St Bartholomew's School","Comprehensive (secondary)","Academy converter","Andover Road",NA,NA,"Newbury","RG14 6JP",2,"0163 5521255",23,1,1,1,1,1,1
110048,"8694031","South East","No","The Willink School","Comprehensive (secondary)","Community school","School Lane","Burghfield Common",NA,"Reading","RG7 3XJ",2,"0118 9832030",23,1,1,1,1,1,1
136521,"8715405","South East","No","Langley Grammar School","Selective (grammar)","Academy converter","Reddington Drive",NA,NA,"Langley","SL3 7QS",1,"0175 3598300",10,1,1,1,1,1,1
136420,"8715408","South East","No","Upton Court Grammar School","Selective (grammar)","Academy converter","Lascelles Road",NA,NA,"Slough","SL3 7PR",1,"0175 3522892",23,1,1,1,1,1,1
136880,"8724047","South East","No","The Holt School","Comprehensive (secondary)","Academy converter","Holt Lane",NA,NA,"Wokingham","RG41 1EE",1,"0118 9780165",11,1,1,1,1,1,1
136637,"8724053","South East","No","Maiden Erlegh School","Comprehensive (secondary)","Academy converter","Silverdale Road","Earley",NA,"Reading","RG6 7HS",2,"0118 9262467",28,1,1,1,1,1,1
142166,"8724060","South East","No","Waingels College","Comprehensive (secondary)","Academy converter","Waingels Road","Woodley",NA,"Reading","RG5 4RF",2,"0118 9690336",29,1,1,1,1,1,1
136775,"8735408","East","No","Sawston Village College","Comprehensive (secondary)","Academy converter","New Road","Sawston",NA,"Cambridge","CB22 3BP",2,"0122 3712777",32,1,1,1,1,1,1
136636,"8734027","East","No","Parkside Community College","Comprehensive (secondary)","Academy converter","Parkside",NA,NA,"Cambridge","CB1 1EH",1,"0122 3712600",20,1,1,1,1,1,1
136887,"8734029","East","No","Chesterton Community College","Comprehensive (secondary)","Academy converter","Gilbert Road",NA,NA,"Cambridge","CB4 3NY",1,"0122 3712150",17,1,1,1,1,1,1
136463,"8735406","East","No","Comberton Village College","Comprehensive (secondary)","Academy converter","West Street","Comberton",NA,"Cambridge","CB23 7DU",1,"0122 3262503",37,1,1,1,1,1,1
136580,"8734007","East","No","Swavesey Village College","Comprehensive (secondary)","Academy converter","Gibraltar Lane","Swavesey",NA,"Cambridge","CB24 4RS",1,"0195 4230366",26,1,1,1,1,1,1
136398,"8745404","East","No","The King's (The Cathedral) School","Comprehensive (secondary)","Academy converter","Park Road",NA,NA,"Peterborough","PE1 2UE",1,"0173 3751541",13,1,1,1,1,1,1
139368,"8764207","North West","No","Wade Deacon High School","Comprehensive (secondary)","Academy converter","Birchfield Road",NA,NA,"Widnes","WA8 7TD",1,"0151 4232721",74,1,1,1,1,1,1
136336,"8784184","South West","No","Ivybridge Community College","Comprehensive (secondary)","Academy converter","Harford Road",NA,NA,"Ivybridge","PL21 0JA",1,"0175 2691000",42,1,1,1,1,1,1
113553,"8784607","South West","No","St Peter's Church of England Aided School","Comprehensive (secondary)","Voluntary aided school","Quarry Lane","Heavitree",NA,"Exeter","EX2 5AP",2,"0139 2204764",46,1,1,1,1,1,1
136367,"8784110","South West","No","Kingsbridge Academy","Comprehensive (secondary)","Academy converter","Balkwill Road",NA,NA,"Kingsbridge","TQ7 1PL",1,"0154 8852641",28,1,1,1,1,1,1
142805,"8784016","South West","No","St James School","Comprehensive (secondary)","Academy converter","Summer Lane",NA,NA,"Exeter","EX4 8NN",2,"0139 2209922",43,1,1,1,1,1,1
136588,"8794152","South West","No","Devonport High School for Girls","Selective (grammar)","Academy converter","Lyndhurst Road","Peverell",NA,"Plymouth","PL2 3DL",2,"0175 2705024",10,1,1,1,1,1,1
136506,"8804114","South West","No","Torquay Girls Grammar School","Selective (grammar)","Academy converter","30 Shiphay Lane",NA,NA,"Torquay","TQ2 7DY",1,"0180 3613215",9,1,1,1,1,1,1
136321,"8805401","South West","No","Torquay Boys' Grammar School","Selective (grammar)","Academy converter","Shiphay Manor Drive",NA,NA,"Torquay","TQ2 7EL",1,"0180 3615501",15,1,1,1,1,1,1
136577,"8815403","East","No","The King John School","Comprehensive (secondary)","Academy converter","Shipwrights Drive","Thundersley",NA,"Benfleet","SS7 1RQ",1,"0170 2558284",37,1,1,1,1,1,1
136863,"8814480","East","No","Moulsham High School","Comprehensive (secondary)","Academy converter","Brian Close",NA,NA,"Chelmsford","CM2 9ES",2,"0124 5260101",37,1,1,1,1,1,1
138834,"8815461","East","No","Brentwood Ursuline Convent High School","Comprehensive (secondary)","Academy converter","Queen's Road",NA,NA,"Brentwood","CM14 4EX",2,"0127 7227156",11,1,1,1,1,1,1
136642,"8815411","East","No","King Edward VI Grammar School, Chelmsford","Selective (grammar)","Academy converter","Broomfield Road",NA,NA,"Chelmsford","CM1 3SX",1,"0124 5353510",6,1,1,1,1,1,1
136443,"8825446","East","No","Southend High School for Boys","Selective (grammar)","Academy converter","Prittlewell Chase",NA,NA,"Southend-on-Sea","SS0 0RG",1,"0170 2606200",8,1,1,1,1,1,1
136444,"8825428","East","No","Southend High School for Girls","Selective (grammar)","Academy converter","Southchurch Boulevard",NA,NA,"Southend-on-Sea","SS2 4UZ",1,"0170 2588852",8,1,1,1,1,1,1
137284,"8825414","East","No","The Eastwood Academy","Modern (secondary)","Academy converter","Rayleigh Road",NA,NA,"Leigh-on-Sea","SS9 5UU",2,"0170 2524341",27,1,1,1,1,1,1
136272,"8825401","East","No","Westcliff High School for Boys Academy","Selective (grammar)","Academy converter","Kenilworth Gardens",NA,NA,"Westcliff-on-Sea","SS0 0BP",1,"0170 2475443",11,1,1,1,1,1,1
136490,"8825423","East","No","Westcliff High School for Girls","Selective (grammar)","Academy converter","Kenilworth Gardens",NA,NA,"Westcliff-on-Sea","SS0 0BS",1,"0170 2476026",11,1,1,1,1,1,1
137312,"8825465","East","No","St Bernard's High School","Comprehensive (secondary)","Academy converter","Milton Road",NA,NA,"Westcliff-on-Sea","SS0 7JS",2,"0170 2343583",19,1,1,1,1,1,1
137549,"8834394","East","No","Harris Academy Chafford Hundred","Comprehensive (secondary)","Academy converter","Chafford Hundred Campus","Mayflower Road","Chafford Hundred","Grays","RM16 6SA",1,"0137 5484580",18,1,1,1,1,1,1
137456,"8835440","East","No","St Clere's School","Comprehensive (secondary)","Academy converter","Butts Lane",NA,NA,"Stanford-le-Hope","SS17 0NW",2,"0137 5641001",44,1,1,1,1,1,1
115239,"8834733","East","No","Grays Convent High School","Comprehensive (secondary)","Voluntary aided school","College Avenue",NA,NA,"Grays","RM17 5UX",2,"0137 5376173",26,1,1,1,1,1,1
116992,"8844601","West Midlands","No","St Mary's RC High School","Comprehensive (secondary)","Voluntary aided school","Lugwardine",NA,NA,"Hereford","HR1 4DR",2,"0143 2850416",17,1,1,1,1,1,1
136925,"8854030","West Midlands","No","Pershore High School","Comprehensive (secondary)","Academy converter","Station Road",NA,NA,"Pershore","WR10 2BX",2,"0138 6552471",34,1,1,1,1,1,1
137474,"8865444","South East","No","Barton Court Grammar School","Selective (grammar)","Academy converter","Longport",NA,NA,"Canterbury","CT1 1PH",1,"0122 7464600",8,1,1,1,1,1,1
136455,"8864046","South East","No","Weald of Kent Grammar School","Selective (grammar)","Academy converter","Tudeley Lane",NA,NA,"Tonbridge","TN9 2JP",1,"0173 2373500",12,1,1,1,1,1,1
136582,"8864058","South East","No","Invicta Grammar School","Selective (grammar)","Academy converter","Huntsman Lane",NA,NA,"Maidstone","ME14 5DS",1,"0162 2755856",9,1,1,1,1,1,1
118840,"8864534","South East","No","Simon Langton Girls' Grammar School","Selective (grammar)","Voluntary controlled school","Old Dover Road",NA,NA,"Canterbury","CT1 3EW",2,"0122 7463711",10,1,1,1,1,1,1
138019,"8864528","South East","No","The Norton Knatchbull School","Selective (grammar)","Academy converter","Hythe Road",NA,NA,"Ashford","TN24 0QJ",2,"0123 3620045",15,1,1,1,1,1,1
137099,"8865465","South East","No","Gravesend Grammar School","Selective (grammar)","Academy converter","Church Walk",NA,NA,"Gravesend","DA12 2PR",1,"0147 4331893",11,1,1,1,1,1,1
118836,"8864523","South East","No","Maidstone Grammar School for Girls","Selective (grammar)","Foundation school","Buckland Road",NA,NA,"Maidstone","ME16 0SF",1,"0162 2752103",10,1,1,1,1,1,1
118806,"8864109","South East","No","Dover Grammar School for Girls","Selective (grammar)","Community school","Frith Road",NA,NA,"Dover","CT16 2PZ",1,"0130 4206625",17,1,1,1,1,1,1
137837,"8865437","South East","No","The Folkestone School for Girls","Selective (grammar)","Academy converter","Coolinge Lane",NA,NA,"Folkestone","CT20 3RB",1,"0130 3251125",11,1,1,1,1,1,1
137250,"8865400","South East","No","Wilmington Grammar School for Girls","Selective (grammar)","Academy converter","Wilmington Grange","Parsons Lane","Wilmington","Dartford","DA2 7BB",1,"0132 2226351",6,1,1,1,1,1,1
118883,"8865411","South East","Yes","Dartford Grammar School for Girls","Selective (grammar)","Foundation school","Shepherds Lane",NA,NA,"Dartford","DA1 2NT",NA,"0132 2223123",8,1,1,1,1,1,1
138480,"8864101","South East","No","The Harvey Grammar School","Selective (grammar)","Academy converter","Cheriton Road",NA,NA,"Folkestone","CT19 5JY",1,"0130 3252131",10,1,1,1,1,1,1
136305,"8864080","South East","No","Highsted Grammar School","Selective (grammar)","Academy converter","Highsted Road",NA,NA,"Sittingbourne","ME10 4PT",1,"0179 5424223",13,1,1,1,1,1,1
118789,"8864043","South East","No","Tunbridge Wells Girls' Grammar School","Selective (grammar)","Foundation school","Southfield Road",NA,NA,"Tunbridge Wells","TN4 9UJ",1,"0189 2520902",7,1,1,1,1,1,1
137834,"8865467","South East","No","Mayfield Grammar School, Gravesend","Selective (grammar)","Academy converter","Pelham Road",NA,NA,"Gravesend","DA11 0JE",1,"0147 4352896",11,1,1,1,1,1,1
136379,"8864092","South East","No","Highworth Grammar School","Selective (grammar)","Academy converter","Maidstone Road",NA,NA,"Ashford","TN24 8UD",1,"0123 3624910",10,1,1,1,1,1,1
136662,"8874530","South East","No","Sir Joseph Williamson's Mathematical School","Selective (grammar)","Academy converter","Maidstone Road",NA,NA,"Rochester","ME1 3EL",1,"0163 4844008",14,1,1,1,1,1,1
136864,"8875420","South East","No","Rainham Mark Grammar School","Selective (grammar)","Academy converter","Pump Lane","Rainham",NA,"Gillingham","ME8 7AJ",1,"0163 4364151",16,1,1,1,1,1,1
136313,"8875445","South East","No","The Rochester Grammar School","Selective (grammar)","Academy converter","Maidstone Road",NA,NA,"Rochester","ME1 3BY",1,"0163 4843049",14,1,1,1,1,1,1
136594,"8874068","South East","No","Holcombe Grammar School","Selective (grammar)","Academy converter","Holcombe","Maidstone Road",NA,"Chatham","ME4 6JB",2,"0163 4830083",14,1,1,1,1,1,1
136337,"8874069","South East","No","Fort Pitt Grammar School","Selective (grammar)","Academy converter","Fort Pitt Hill",NA,NA,"Chatham","ME4 6TJ",1,"0163 4842359",21,1,1,1,1,1,1
136742,"8885401","North West","No","Lancaster Royal Grammar School","Selective (grammar)","Academy converter","East Road",NA,NA,"Lancaster","LA1 3EF",1,"0152 4580600",6,1,1,1,1,1,1
136801,"8884001","North West","No","Preston Muslim Girls High School","Comprehensive (secondary)","Voluntary aided school","Quwwatul Education Centr","Peel Hall Street","Deepdale","Preston","PR1 6QQ",1,"0177 2651906",13,1,1,1,1,1,1
138835,"8885400","North West","No","Bacup and Rawtenstall Grammar School","Selective (grammar)","Academy converter","Glen Road","Waterfoot",NA,"Rossendale","BB4 7BJ",1,"0170 6234500",11,1,1,1,1,1,1
119814,"8885405","North West","No","Archbishop Temple School, A Church of England Specialist College","Comprehensive (secondary)","Voluntary aided school","St Vincent's Road","Fulwood",NA,"Preston","PR2 8RA",1,"0177 2717782",9,1,1,1,1,1,1
136997,"8884041","North West","No","Bowland High","Modern (secondary)","Academy converter","Riversmead","Sawley Road","Grindleton","Clitheroe","BB7 4QS",1,"0120 0441374",6,1,1,1,1,1,1
141565,"8894800","North West","No","Tauheedul Islam Girls' High School","Comprehensive (secondary)","Academy converter","Preston New Road",NA,NA,"Blackburn","BB2 7AD",1,"0125 454021",24,1,1,1,1,1,1
138220,"8894000","North West","No","Tauheedul Islam Boys' High School","Comprehensive (secondary)","Free schools","Shadsworth Road",NA,NA,"Blackburn","BB1 2HT",1,"0125 4918670",14,1,1,1,1,1,1
136291,"8915401","East Midlands","No","George Spencer Academy and Technology College","Comprehensive (secondary)","Academy converter","Arthur Mee Road","Stapleford",NA,"Nottingham","NG9 7EW",1,"0115 9170100",39,1,1,1,1,1,1
138482,"8914329","East Midlands","No","Rushcliffe School","Comprehensive (secondary)","Academy converter","Boundary Road","West Bridgford",NA,"Nottingham","NG2 7BW",1,"0115 9744050",29,1,1,1,1,1,1
138248,"8914012","East Midlands","No","Outwood Academy Portland","Comprehensive (secondary)","Academy sponsor led","Netherton Road",NA,NA,"Worksop","S80 2SF",1,"0190 9471010",51,1,1,1,1,1,1
136878,"8914404","East Midlands","No","Toot Hill School","Comprehensive (secondary)","Academy converter","The Banks","Bingham",NA,"Nottingham","NG13 8BL",1,"0194 9875550",30,1,1,1,1,1,1
138341,"8925404","East Midlands","No","The Trinity Catholic School A Voluntary Academy","Comprehensive (secondary)","Academy converter","Beechdale Road","Aspley",NA,"Nottingham","NG8 3EZ",1,"0115 9296251",40,1,1,1,1,1,1
137336,"8935401","West Midlands","No","The Corbet School","Comprehensive (secondary)","Academy converter","Eyton Lane","Baschurch",NA,"Shrewsbury","SY4 2AX",2,"0193 9260296",14,1,1,1,1,1,1
123627,"8946900","West Midlands","No","Thomas Telford School","Comprehensive (secondary)","City technology college","Old Park",NA,NA,"Telford","TF3 4NW",1,"0195 2200000",17,1,1,1,1,1,1
136340,"8954123","North West","No","Sandbach High School and Sixth Form College","Comprehensive (secondary)","Academy converter","Middlewich Road",NA,NA,"Sandbach","CW11 3NT",1,"0127 0765031",26,1,1,1,1,1,1
139764,"8954612","North West","No","St Thomas More Catholic High School, A Specialist School for Maths & ICT","Comprehensive (secondary)","Academy converter","Dane Bank Avenue",NA,NA,"Crewe","CW2 8AE",2,"0127 0568014",11,1,1,1,1,1,1
138743,"8964134","North West","No","The County High School, Leftwich","Comprehensive (secondary)","Academy converter","Granville Road",NA,NA,"Northwich","CW9 8EZ",1,"0160 6333300",29,1,1,1,1,1,1
112378,"9094011","North West","No","Samuel King's School","Comprehensive (secondary)","Foundation school","Church Road",NA,NA,"Alston","CA9 3QU",2,"0143 4381236",7,1,1,1,1,1,1
112397,"9094501","North West","No","The Nelson Thomlinson School","Comprehensive (secondary)","Voluntary controlled school","High Street",NA,NA,"Wigton","CA7 9PX",1,"0169 7342160",32,1,1,1,1,1,1
136306,"9164001","South West","No","Sir Thomas Rich's School","Selective (grammar)","Academy converter","Oakleaze",NA,NA,"Gloucester","GL2 0LF",1,"0145 2338400",6,1,1,1,1,1,1
136474,"9165408","South West","No","Balcarras School","Comprehensive (secondary)","Academy converter","East End Road","Charlton Kings",NA,"Cheltenham","GL53 8QF",1,"0124 2515881",15,1,1,1,1,1,1
136874,"9165402","South West","No","Stroud High School","Selective (grammar)","Academy converter","Beards Lane","Cainscross Road",NA,"Stroud","GL5 4HF",1,"0145 3764441",8,1,1,1,1,1,1
136606,"9195400","East","No","Rickmansworth School","Comprehensive (secondary)","Academy converter","Scots Hill",NA,NA,"Rickmansworth","WD3 3AQ",2,"0192 3773296",18,1,1,1,1,1,1
136276,"9195401","East","No","Watford Grammar School for Boys","Comprehensive (secondary)","Academy converter","Rickmansworth Road",NA,NA,"Watford","WD18 7JF",1,"0192 3208900",14,1,1,1,1,1,1
137339,"9194083","East","No","St Albans Girls' School","Comprehensive (secondary)","Academy converter","Sandridgebury Lane",NA,NA,"St Albans","AL3 6DB",1,"0172 7853134",26,1,1,1,1,1,1
138106,"9194620","East","No","Loreto College","Comprehensive (secondary)","Academy converter","Hatfield Road",NA,NA,"St Albans","AL1 3RQ",1,"0172 7856206",12,1,1,1,1,1,1
137914,"9195418","East","No","Saint Joan of Arc Catholic School","Comprehensive (secondary)","Academy converter","High Street",NA,NA,"Rickmansworth","WD3 1HG",2,"0192 3773881",16,1,1,1,1,1,1
136877,"9195410","East","No","Queens' School","Comprehensive (secondary)","Academy converter","Aldenham Road",NA,NA,"Bushey","WD23 2TY",2,"0192 3224465",31,1,1,1,1,1,1
137002,"9194141","East","No","Freman College","Comprehensive (secondary)","Academy converter","Bowling Green Lane",NA,NA,"Buntingford","SG9 9BT",2,"0176 3271818",22,1,1,1,1,1,1
117577,"9195405","East","No","The Bishop's Stortford High School","Comprehensive (secondary)","Foundation school","London Road",NA,NA,"Bishop's Stortford","CM23 3LU",1,"0127 9868686",8,1,1,1,1,1,1
138286,"9194043","East","No","Beaumont School","Comprehensive (secondary)","Academy converter","Oakwood Drive",NA,NA,"St Albans","AL4 0XB",1,"0172 7854726",15,1,1,1,1,1,1
137532,"9195415","East","No","Goffs School","Comprehensive (secondary)","Academy converter","Goffs Lane","Cheshunt",NA,"Waltham Cross","EN7 5QW",2,"0199 2424200",38,1,1,1,1,1,1
136609,"9194197","East","No","Sandringham School","Comprehensive (secondary)","Academy converter","The Ridgeway",NA,NA,"St Albans","AL4 9NX",1,"0172 7799560",15,1,1,1,1,1,1
140786,"9195420","East","No","The Hertfordshire & Essex High School and Science College","Comprehensive (secondary)","Academy converter","Warwick Road",NA,NA,"Bishop's Stortford","CM23 5NJ",1,"0127 9654127",11,1,1,1,1,1,1
136396,"9194101","East","No","The Broxbourne School","Comprehensive (secondary)","Academy converter","High Road",NA,NA,"Broxbourne","EN10 7DD",2,"0199 2411060",39,1,1,1,1,1,1
117594,"9195422","East","No","St Mary's Catholic School","Comprehensive (secondary)","Voluntary aided school","Windhill",NA,NA,"Bishop's Stortford","CM23 2NQ",1,"0127 9654901",11,1,1,1,1,1,1
135565,"9256907","East Midlands","No","The Priory Academy LSST","Comprehensive (secondary)","Academy sponsor led","Cross O'Cliff Hill",NA,NA,"Lincoln","LN5 8PW",1,"0152 2889977",25,1,1,1,1,1,1
136315,"9255401","East Midlands","No","Queen Elizabeth's Grammar Alford - A Selective Academy","Selective (grammar)","Academy converter","Station Road",NA,NA,"Alford","LN13 9HY",1,"0150 7462403",8,1,1,1,1,1,1
136350,"9255406","East Midlands","No","Caistor Grammar School","Selective (grammar)","Academy converter","Church Street","Caistor",NA,"Market Rasen","LN7 6QJ",1,"0147 2851250",7,1,1,1,1,1,1
120642,"9254027","East Midlands","No","Spalding High School","Selective (grammar)","Community school","Stonegate",NA,NA,"Spalding","PE11 2PJ",1,"0177 5722110",16,1,1,1,1,1,1
138638,"9254004","East Midlands","No","Kesteven and Grantham Girls' School","Selective (grammar)","Academy converter","Sandon Road",NA,NA,"Grantham","NG31 9AU",1,"0147 6563017",11,1,1,1,1,1,1
137092,"9264089","East","No","Diss High School","Comprehensive (secondary)","Academy converter","Walcot Road",NA,NA,"Diss","IP22 4DH",2,"0137 9642424",15,1,1,1,1,1,1
136481,"9265400","East","No","Wymondham College","Comprehensive (secondary)","Academy converter","Golf Links Road","Morley",NA,"Wymondham","NR18 9SZ",1,"0195 3609000",16,1,1,1,1,1,1
137913,"9264605","East","No","Notre Dame High School, Norwich","Comprehensive (secondary)","Academy converter","Surrey Street",NA,NA,"Norwich","NR1 3PB",1,"0160 3611431",28,1,1,1,1,1,1
140188,"9264009","East","No","Hethersett Academy","Comprehensive (secondary)","Academy sponsor led","Queen's Road","Hethersett",NA,"Norwich","NR9 3DB",1,"0160 3810924",17,1,1,1,1,1,1
135317,"9286907","East Midlands","No","Brooke Weston Academy","Comprehensive (secondary)","Academy sponsor led","Coomb Road","Corby",NA,"Great Oakley","NN18 8LA",1,"0153 6396366",24,1,1,1,1,1,1
136299,"9285404","East Midlands","No","Northampton School for Boys","Comprehensive (secondary)","Academy converter","Billing Road",NA,NA,"Northampton","NN1 5RT",1,"0160 4230240",40,1,1,1,1,1,1
136976,"9285400","East Midlands","No","Southfield School for Girls","Comprehensive (secondary)","Academy converter","Lewis Road",NA,NA,"Kettering","NN15 6HE",2,"0153 6513063",28,1,1,1,1,1,1
140510,"9284076","East Midlands","No","Northampton School for Girls","Comprehensive (secondary)","Academy converter","Spinney Hill Road",NA,NA,"Northampton","NN3 6DG",1,"0160 4679540",62,1,1,1,1,1,1
139146,"9314120","South East","No","Cheney School","Comprehensive (secondary)","Academy converter","Cheney Lane","Headington",NA,"Oxford","OX3 7QH",2,"0186 5765726",67,1,1,1,1,1,1
137970,"9314116","South East","No","The Cherwell School","Comprehensive (secondary)","Academy converter","Marston Ferry Road",NA,NA,"Oxford","OX2 7EE",1,"0186 5558719",45,1,1,1,1,1,1
125278,"9364622","South East","No","St Bede's School","Comprehensive (secondary)","Voluntary aided school","Carlton Road",NA,NA,"Redhill","RH1 2LQ",1,"0173 7212108",24,1,1,1,1,1,1
139193,"9365400","South East","No","Guildford County School","Comprehensive (secondary)","Academy converter","Farnham Road",NA,NA,"Guildford","GU2 4LU",1,"0148 3504089",19,1,1,1,1,1,1
137736,"9365407","South East","No","Rosebery School","Comprehensive (secondary)","Academy converter","White Horse Drive",NA,NA,"Epsom","KT18 7NQ",1,"0137 2720439",25,1,1,1,1,1,1
143369,"9365402","South East","No","St John the Baptist Catholic Comprehensive School, Woking","Comprehensive (secondary)","Academy converter","Elmbridge Lane","Kingfield",NA,"Woking","GU22 9AL",1,"0148 3729343",11,1,1,1,1,1,1
140117,"9364190","South East","No","Tomlinscote School and Sixth Form College","Comprehensive (secondary)","Academy converter","Tomlinscote Way","Frimley",NA,"Camberley","GU16 8PY",1,"0127 6709050",21,1,1,1,1,1,1
137003,"9365413","South East","No","Fullbrook School","Comprehensive (secondary)","Academy converter","Selsdon Road","New Haw",NA,"Addlestone","KT15 3HW",2,"0193 2349301",42,1,1,1,1,1,1
125315,"9365415","South East","No","All Hallows Catholic School","Comprehensive (secondary)","Voluntary aided school","Weybourne Road",NA,NA,"Farnham","GU9 9HF",1,"0125 2319211",24,1,1,1,1,1,1
125747,"9374236","West Midlands","No","Kenilworth School and Sixth Form","Comprehensive (secondary)","Foundation school","Leyes Lane",NA,NA,"Kenilworth","CV8 2DA",1,"0192 6859421",27,1,1,1,1,1,1
136587,"9374241","West Midlands","No","Ashlawn School","Comprehensive (secondary)","Academy converter","Ashlawn Road","Hillmorton",NA,"Rugby","CV22 5ET",1,"0178 8573425",40,1,1,1,1,1,1
137767,"9374153","West Midlands","No","Higham Lane School","Comprehensive (secondary)","Academy converter","Shanklin Drive",NA,NA,"Nuneaton","CV10 0BJ",2,"0247 6388123",37,1,1,1,1,1,1
137771,"9374004","West Midlands","No","Etone College","Comprehensive (secondary)","Academy converter","Leicester Road",NA,NA,"Nuneaton","CV11 6AA",2,"0247 6757300",43,1,1,1,1,1,1
126093,"9384502","South East","No","Davison Church of England High School for Girls, Worthing","Comprehensive (secondary)","Voluntary controlled school","Selborne Road",NA,NA,"Worthing","BN11 2JX",2,"0190 3233835",39,1,1,1,1,1,1
139668,"9384006","South East","No","Chichester Free School","Comprehensive (secondary)","Free schools","The Courtyard","Vinnetrow Road","Runcton","Chichester","PO20 1QH",2,"0124 3792690",6,1,1,1,1,1,1
126066,"9384010","South East","No","Millais School","Comprehensive (secondary)","Community school","Depot Road",NA,NA,"Horsham","RH13 5HR",1,"0140 3254932",22,1,1,1,1,1,1
